STARLINK-31244          
1 58856U 24019D   26068.56188810 -.00002174  00000+0 -69451-4 0  9991
2 58856  43.0044 249.5832 0002101 278.4832  81.5781 15.27599347119069
TROLL                   
1 62658U 25009BB  26068.22522958  .00013174  00000+0  48220-3 0  9994
2 62658  97.3932 150.7169 0001816  59.1850 300.9568 15.28164315118170
